{
  "type": "FeatureCollection",
  "features": [
    {
      "type": "Feature",
      "properties": {
        "name": "Gansu Province simplified orientation outline",
        "source": "OpenStreetMap relation 153314 via Nominatim",
        "source_url": "https://www.openstreetmap.org/relation/153314",
        "snapshot_date": "2026-08-22",
        "simplification_degrees": 0.035,
        "role": "schematic provincial orientation only"
      },
      "geometry": {
        "type": "Polygon",
        "coordinates": [
          [
            [
              92.3386502,
              39.2373639
            ],
            [
              92.3526245,
              39.0683342
            ],
            [
              92.4097288,
              39.0379655
            ],
            [
              92.4926382,
              39.1029598
            ],
            [
              93.1152295,
              39.1791712
            ],
            [
              93.197796,
              39.0465896
            ],
            [
              93.191175,
              38.9193913
            ],
            [
              93.7289999,
              38.9242943
            ],
            [
              93.8831518,
              38.8677808
            ],
            [
              93.8821219,
              38.826202
            ],
            [
              93.7533758,
              38.8056041
            ],
            [
              93.8697622,
              38.723287
            ],
            [
              94.3687138,
              38.7631814
            ],
            [
              94.5500005,
              38.3495979
            ],
            [
              94.9728612,
              38.4304593
            ],
            [
              95.1206515,
              38.4162663
            ],
            [
              95.2659528,
              38.2961525
            ],
            [
              95.4550866,
              38.2908363
            ],
            [
              95.7023627,
              38.3995731
            ],
            [
              96.0483168,
              38.177886
            ],
            [
              96.2630652,
              38.1449527
            ],
            [
              96.3773916,
              38.2778096
            ],
            [
              96.6647528,
              38.2230777
            ],
            [
              96.6236307,
              38.3412816
            ],
            [
              96.6994046,
              38.4575349
            ],
            [
              96.6581091,
              38.4883257
            ],
            [
              96.7992581,
              38.5188146
            ],
            [
              96.7939078,
              38.6076704
            ],
            [
              96.9611761,
              38.5572225
            ],
            [
              97.0547674,
              38.5931265
            ],
            [
              96.9928252,
              38.8837379
            ],
            [
              96.9379436,
              38.9100692
            ],
            [
              97.0130647,
              39.1411942
            ],
            [
              96.9785369,
              39.2069639
            ],
            [
              97.3465347,
              39.1666298
            ],
            [
              98.0932071,
              38.7848575
            ],
            [
              98.2500564,
              38.8859333
            ],
            [
              98.2907719,
              39.0372599
            ],
            [
              98.5804547,
              38.9283393
            ],
            [
              98.7425361,
              39.0859965
            ],
            [
              98.8116482,
              39.087275
            ],
            [
              99.0982699,
              38.955279
            ],
            [
              99.0651943,
              38.9036466
            ],
            [
              99.3494031,
              38.7366649
            ],
            [
              99.6573444,
              38.4396439
            ],
            [
              100.1271181,
              38.2289066
            ],
            [
              100.180324,
              38.2198552
            ],
            [
              100.1673514,
              38.3204927
            ],
            [
              99.9987297,
              38.467313
            ],
            [
              100.0560161,
              38.5201838
            ],
            [
              100.2382081,
              38.4419119
            ],
            [
              100.2475288,
              38.3728187
            ],
            [
              100.3003388,
              38.3881368
            ],
            [
              100.318174,
              38.3252056
            ],
            [
              100.4359029,
              38.2673867
            ],
            [
              100.7112107,
              38.253432
            ],
            [
              100.8421379,
              38.1477782
            ],
            [
              100.9276794,
              38.1685556
            ],
            [
              100.8961373,
              38.0125282
            ],
            [
              101.1009868,
              37.9464532
            ],
            [
              101.1964993,
              37.8484913
            ],
            [
              101.3534295,
              37.7896612
            ],
            [
              101.4382542,
              37.8677702
            ],
            [
              101.5907518,
              37.8301944
            ],
            [
              101.6569884,
              37.7321911
            ],
            [
              101.812723,
              37.6535089
            ],
            [
              101.9967638,
              37.7257506
            ],
            [
              102.1286102,
              37.5466124
            ],
            [
              102.1021603,
              37.4816113
            ],
            [
              102.4261792,
              37.3077178
            ],
            [
              102.6360388,
              37.1210012
            ],
            [
              102.4961166,
              37.0901527
            ],
            [
              102.4490157,
              36.9685913
            ],
            [
              102.7190406,
              36.7698713
            ],
            [
              102.6119,
              36.738731
            ],
            [
              102.6051378,
              36.6819113
            ],
            [
              102.7625566,
              36.5755125
            ],
            [
              102.7326952,
              36.5620477
            ],
            [
              102.7913171,
              36.4994008
            ],
            [
              102.7648165,
              36.4654471
            ],
            [
              102.8423713,
              36.3329895
            ],
            [
              103.0654368,
              36.2150052
            ],
            [
              102.8816528,
              36.088842
            ],
            [
              102.9733073,
              36.0362844
            ],
            [
              102.9485413,
              35.83749
            ],
            [
              102.7837937,
              35.8626227
            ],
            [
              102.6935888,
              35.7967007
            ],
            [
              102.6987278,
              35.6995733
            ],
            [
              102.8062826,
              35.5623271
            ],
            [
              102.7252975,
              35.5330828
            ],
            [
              102.7805837,
              35.532028
            ],
            [
              102.7421852,
              35.4952729
            ],
            [
              102.505408,
              35.5883789
            ],
            [
              102.4436795,
              35.436026
            ],
            [
              102.2914621,
              35.4253395
            ],
            [
              102.2773231,
              35.3049373
            ],
            [
              102.3671946,
              35.2642768
            ],
            [
              102.401648,
              35.1792417
            ],
            [
              102.2775669,
              35.0570764
            ],
            [
              102.0933123,
              34.9885998
            ],
            [
              102.0506923,
              34.8926953
            ],
            [
              101.9163666,
              34.8779137
            ],
            [
              101.9332271,
              34.588635
            ],
            [
              102.1535969,
              34.5088521
            ],
            [
              102.2577229,
              34.3563867
            ],
            [
              102.1715641,
              34.3555182
            ],
            [
              102.1451711,
              34.2732475
            ],
            [
              102.0662069,
              34.294913
            ],
            [
              101.9541549,
              34.1112361
            ],
            [
              101.8449782,
              34.1547159
            ],
            [
              101.7162255,
              34.0844684
            ],
            [
              101.5777493,
              34.198878
            ],
            [
              100.948542,
              34.3845265
            ],
            [
              100.8199602,
              34.3214443
            ],
            [
              100.762864,
              34.1788949
            ],
            [
              100.9938555,
              33.8924498
            ],
            [
              101.1528902,
              33.8449295
            ],
            [
              101.1736603,
              33.6549339
            ],
            [
              101.5403818,
              33.69679
            ],
            [
              101.6290827,
              33.4937674
            ],
            [
              101.7336578,
              33.4981749
            ],
            [
              101.8423779,
              33.6043818
            ],
            [
              101.8879928,
              33.5750297
            ],
            [
              101.9458723,
              33.4442711
            ],
            [
              101.874133,
              33.315412
            ],
            [
              101.7662564,
              33.2650901
            ],
            [
              101.8636361,
              33.1051955
            ],
            [
              101.9332122,
              33.1884572
            ],
            [
              102.0800147,
              33.1948931
            ],
            [
              102.1060324,
              33.3004037
            ],
            [
              102.2067546,
              33.2268417
            ],
            [
              102.1853828,
              33.3338988
            ],
            [
              102.2655916,
              33.4242423
            ],
            [
              102.3667001,
              33.3936843
            ],
            [
              102.4819707,
              33.4608762
            ],
            [
              102.476263,
              33.5454365
            ],
            [
              102.3376035,
              33.6134757
            ],
            [
              102.3393631,
              33.7319778
            ],
            [
              102.285844,
              33.7199728
            ],
            [
              102.321306,
              33.7617341
            ],
            [
              102.2355597,
              33.7932045
            ],
            [
              102.2666187,
              33.8389714
            ],
            [
              102.1372724,
              33.9727412
            ],
            [
              102.3903838,
              33.9719636
            ],
            [
              102.4378308,
              34.0874615
            ],
            [
              102.6540508,
              34.0724248
            ],
            [
              102.6041805,
              34.1569915
            ],
            [
              102.9149674,
              34.312181
            ],
            [
              102.9801712,
              34.1970673
            ],
            [
              103.1136364,
              34.1757983
            ],
            [
              103.178233,
              34.087444
            ],
            [
              103.1188392,
              34.0483147
            ],
            [
              103.1577813,
              34.0093423
            ],
            [
              103.1163951,
              33.9556866
            ],
            [
              103.1841433,
              33.9039538
            ],
            [
              103.1598789,
              33.8076194
            ],
            [
              103.2782627,
              33.8069658
            ],
            [
              103.3409073,
              33.739646
            ],
            [
              103.5182543,
              33.8117603
            ],
            [
              103.5358589,
              33.6726448
            ],
            [
              103.5943777,
              33.7300998
            ],
            [
              103.7669194,
              33.6585601
            ],
            [
              104.0333274,
              33.6904026
            ],
            [
              104.1671764,
              33.6134788
            ],
            [
              104.2206331,
              33.4055362
            ],
            [
              104.2957959,
              33.3316999
            ],
            [
              104.3736501,
              33.3503057
            ],
            [
              104.4336072,
              33.3245801
            ],
            [
              104.4090461,
              33.2834695
            ],
            [
              104.3002793,
              33.3061256
            ],
            [
              104.3740921,
              33.109874
            ],
            [
              104.3329773,
              33.0437889
            ],
            [
              104.424118,
              33.016304
            ],
            [
              104.2869829,
              32.9446291
            ],
            [
              104.2976172,
              32.833337
            ],
            [
              104.7418844,
              32.6379398
            ],
            [
              104.8264019,
              32.6654605
            ],
            [
              104.8814978,
              32.605218
            ],
            [
              105.0284706,
              32.6522103
            ],
            [
              105.139804,
              32.6025909
            ],
            [
              105.4496002,
              32.7384738
            ],
            [
              105.3764,
              32.8794223
            ],
            [
              105.4213703,
              32.9333864
            ],
            [
              105.6351419,
              32.8842843
            ],
            [
              105.9164547,
              32.9950196
            ],
            [
              105.9338664,
              33.1227445
            ],
            [
              105.8913802,
              33.1489781
            ],
            [
              105.969057,
              33.1502716
            ],
            [
              105.9596156,
              33.2144916
            ],
            [
              105.7463744,
              33.287964
            ],
            [
              105.698131,
              33.3934121
            ],
            [
              105.8233871,
              33.3819199
            ],
            [
              105.8332728,
              33.4914463
            ],
            [
              105.9527764,
              33.6149774
            ],
            [
              106.0945575,
              33.6138277
            ],
            [
              106.1830902,
              33.548111
            ],
            [
              106.4190601,
              33.6230818
            ],
            [
              106.4650366,
              33.5255777
            ],
            [
              106.552689,
              33.5293407
            ],
            [
              106.5745799,
              33.6339184
            ],
            [
              106.449848,
              33.811266
            ],
            [
              106.4930789,
              33.8522839
            ],
            [
              106.4050421,
              33.9091703
            ],
            [
              106.4968369,
              34.1116694
            ],
            [
              106.5811802,
              34.1501686
            ],
            [
              106.5388073,
              34.2486384
            ],
            [
              106.4841851,
              34.2504615
            ],
            [
              106.5221347,
              34.2938407
            ],
            [
              106.6756436,
              34.2567471
            ],
            [
              106.7122153,
              34.370779
            ],
            [
              106.4815033,
              34.5260767
            ],
            [
              106.3306542,
              34.5193972
            ],
            [
              106.3091602,
              34.5834807
            ],
            [
              106.4181538,
              34.6568356
            ],
            [
              106.4664458,
              34.6356797
            ],
            [
              106.4444024,
              34.6979378
            ],
            [
              106.5751382,
              34.7798923
            ],
            [
              106.4787283,
              34.9806476
            ],
            [
              106.5392361,
              35.08595
            ],
            [
              106.984987,
              35.0706146
            ],
            [
              107.2093645,
              34.8781633
            ],
            [
              107.291193,
              34.9372059
            ],
            [
              107.5281426,
              34.9125284
            ],
            [
              107.5680281,
              34.9725553
            ],
            [
              107.6348566,
              34.9196847
            ],
            [
              107.8592449,
              34.9972431
            ],
            [
              107.6475508,
              35.2404466
            ],
            [
              107.7124568,
              35.243808
            ],
            [
              107.7126793,
              35.3031091
            ],
            [
              107.9549146,
              35.24203
            ],
            [
              108.1888757,
              35.3065995
            ],
            [
              108.2340559,
              35.255984
            ],
            [
              108.3442188,
              35.303356
            ],
            [
              108.4813205,
              35.2745274
            ],
            [
              108.5945342,
              35.3088115
            ],
            [
              108.6333416,
              35.4023294
            ],
            [
              108.615036,
              35.5578108
            ],
            [
              108.5179483,
              35.6485018
            ],
            [
              108.4929751,
              35.8734781
            ],
            [
              108.6475677,
              35.9485321
            ],
            [
              108.7105309,
              36.1411778
            ],
            [
              108.6145172,
              36.4341164
            ],
            [
              108.5104294,
              36.4755249
            ],
            [
              108.4894948,
              36.4212808
            ],
            [
              108.3998028,
              36.4425381
            ],
            [
              108.343399,
              36.5559998
            ],
            [
              108.2117233,
              36.5712814
            ],
            [
              108.2134171,
              36.6328239
            ],
            [
              108.1287544,
              36.5664872
            ],
            [
              108.0036054,
              36.617393
            ],
            [
              108.0065994,
              36.6850357
            ],
            [
              107.9322601,
              36.658817
            ],
            [
              107.9029721,
              36.7527229
            ],
            [
              107.5407028,
              36.8265114
            ],
            [
              107.4727248,
              36.9085193
            ],
            [
              107.3027245,
              36.9133188
            ],
            [
              107.2698245,
              37.0944475
            ],
            [
              107.1769591,
              37.1422417
            ],
            [
              106.9920023,
              37.1060148
            ],
            [
              106.9007513,
              37.1510336
            ],
            [
              106.8870875,
              37.0975648
            ],
            [
              106.7770937,
              37.1580849
            ],
            [
              106.7556351,
              37.0808673
            ],
            [
              106.6037964,
              37.1312085
            ],
            [
              106.6391053,
              36.9633708
            ],
            [
              106.575275,
              36.9353147
            ],
            [
              106.5354504,
              36.9831592
            ],
            [
              106.6052475,
              36.8787275
            ],
            [
              106.6357057,
              36.8830562
            ],
            [
              106.6409786,
              36.7237305
            ],
            [
              106.5276797,
              36.7303479
            ],
            [
              106.4408942,
              36.6256058
            ],
            [
              106.4516506,
              36.5603118
            ],
            [
              106.3571155,
              36.5720562
            ],
            [
              106.5172976,
              36.4770465
            ],
            [
              106.5078432,
              36.2870723
            ],
            [
              106.4660295,
              36.312052
            ],
            [
              106.5013338,
              36.2666168
            ],
            [
              106.6012613,
              36.2961694
            ],
            [
              106.8300435,
              36.2289204
            ],
            [
              106.9426765,
              36.1223249
            ],
            [
              106.9449064,
              35.9925556
            ],
            [
              106.8877481,
              35.9663259
            ],
            [
              106.9415193,
              35.9409255
            ],
            [
              106.8461614,
              35.8867842
            ],
            [
              106.9078359,
              35.7692303
            ],
            [
              106.7465349,
              35.6897944
            ],
            [
              106.5971723,
              35.7453762
            ],
            [
              106.4296356,
              35.6876627
            ],
            [
              106.5046934,
              35.3579773
            ],
            [
              106.3592429,
              35.2387721
            ],
            [
              106.233673,
              35.4098292
            ],
            [
              106.1689997,
              35.4370718
            ],
            [
              106.1056995,
              35.3642409
            ],
            [
              106.0906148,
              35.510256
            ],
            [
              105.8985899,
              35.5484295
            ],
            [
              105.8381651,
              35.4897475
            ],
            [
              105.6875654,
              35.6845371
            ],
            [
              105.7504621,
              35.7299108
            ],
            [
              105.6648001,
              35.7497034
            ],
            [
              105.5602421,
              35.6891414
            ],
            [
              105.422616,
              35.8201795
            ],
            [
              105.3769149,
              35.7931947
            ],
            [
              105.3935937,
              35.857372
            ],
            [
              105.3298264,
              35.8879839
            ],
            [
              105.339748,
              36.0335303
            ],
            [
              105.5106623,
              36.1472994
            ],
            [
              105.3576428,
              36.497613
            ],
            [
              105.2452325,
              36.5477471
            ],
            [
              105.1990425,
              36.704963
            ],
            [
              105.336841,
              36.7688834
            ],
            [
              105.275517,
              36.8694271
            ],
            [
              105.1751156,
              36.8921319
            ],
            [
              105.1615599,
              36.9946291
            ],
            [
              104.9624893,
              37.0311873
            ],
            [
              104.8239867,
              37.227625
            ],
            [
              104.6235292,
              37.2051453
            ],
            [
              104.6174635,
              37.295215
            ],
            [
              104.7148176,
              37.3379919
            ],
            [
              104.6646549,
              37.3559174
            ],
            [
              104.6757483,
              37.4084266
            ],
            [
              104.4335684,
              37.4458721
            ],
            [
              104.1800233,
              37.4066919
            ],
            [
              103.6716825,
              37.7849866
            ],
            [
              103.3993275,
              37.8610515
            ],
            [
              103.3564858,
              38.0721846
            ],
            [
              103.5500937,
              38.1595144
            ],
            [
              103.4118403,
              38.4045179
            ],
            [
              103.859418,
              38.6462538
            ],
            [
              104.0320617,
              38.8918596
            ],
            [
              104.1937594,
              38.9868988
            ],
            [
              104.1745367,
              39.1538959
            ],
            [
              104.0442989,
              39.2966378
            ],
            [
              104.0873949,
              39.4192901
            ],
            [
              103.8478128,
              39.4606874
            ],
            [
              103.3579504,
              39.3336738
            ],
            [
              103.0100532,
              39.0985398
            ],
            [
              102.6022744,
              39.1727872
            ],
            [
              102.4540696,
              39.2549653
            ],
            [
              101.8285323,
              39.0928371
            ],
            [
              102.0714542,
              38.8905418
            ],
            [
              101.7733292,
              38.6588222
            ],
            [
              101.665468,
              38.6897524
            ],
            [
              101.6045604,
              38.6472958
            ],
            [
              101.5577956,
              38.712948
            ],
            [
              101.3070302,
              38.786429
            ],
            [
              101.3319538,
              38.8467262
            ],
            [
              101.236238,
              38.8583931
            ],
            [
              101.1952961,
              38.9470399
            ],
            [
              101.2266116,
              39.0211593
            ],
            [
              100.9615444,
              38.9437186
            ],
            [
              100.9578306,
              39.0057026
            ],
            [
              100.8287605,
              39.0276135
            ],
            [
              100.8664868,
              39.1096523
            ],
            [
              100.8297565,
              39.4040741
            ],
            [
              100.4968179,
              39.3998364
            ],
            [
              100.4977794,
              39.4802735
            ],
            [
              100.323601,
              39.5082649
            ],
            [
              100.2449046,
              39.6839755
            ],
            [
              99.9037235,
              39.7873822
            ],
            [
              99.8135616,
              39.8645677
            ],
            [
              99.4408795,
              39.8835217
            ],
            [
              99.8719086,
              40.0252344
            ],
            [
              99.9882472,
              40.1873769
            ],
            [
              100.1585899,
              40.2731561
            ],
            [
              100.1603185,
              40.5228693
            ],
            [
              100.2248151,
              40.6927641
            ],
            [
              100.1574235,
              40.8910696
            ],
            [
              99.9133483,
              40.9654393
            ],
            [
              99.5489963,
              40.950888
            ],
            [
              99.174682,
              40.868473
            ],
            [
              99.1735969,
              40.7473381
            ],
            [
              99.1007027,
              40.6751694
            ],
            [
              98.9840865,
              40.7818007
            ],
            [
              98.7901673,
              40.7045107
            ],
            [
              98.8019709,
              40.6061336
            ],
            [
              98.6969327,
              40.6792715
            ],
            [
              98.6679937,
              40.7719123
            ],
            [
              98.5696207,
              40.7459573
            ],
            [
              98.6275084,
              40.6770563
            ],
            [
              98.3435584,
              40.5672836
            ],
            [
              98.3324765,
              40.9178118
            ],
            [
              97.9716109,
              41.0964943
            ],
            [
              97.6150703,
              41.4631834
            ],
            [
              97.8452679,
              41.6554714
            ],
            [
              97.2694839,
              42.7814432
            ],
            [
              96.3874094,
              42.7245257
            ],
            [
              96.1017035,
              42.6031363
            ],
            [
              95.977764,
              42.4354936
            ],
            [
              96.0646246,
              42.4129383
            ],
            [
              96.040077,
              42.325428
            ],
            [
              96.1777495,
              42.2166951
            ],
            [
              96.0757826,
              42.1486419
            ],
            [
              96.1367224,
              42.0181824
            ],
            [
              96.0382533,
              41.9235145
            ],
            [
              95.5700683,
              41.7937844
            ],
            [
              95.3596114,
              41.6681033
            ],
            [
              95.2981353,
              41.5628266
            ],
            [
              95.1355827,
              41.7713557
            ],
            [
              94.8605918,
              41.6673339
            ],
            [
              94.7490118,
              41.5371092
            ],
            [
              94.5335766,
              41.5047209
            ],
            [
              94.0081213,
              41.1128569
            ],
            [
              93.8083075,
              40.8786077
            ],
            [
              93.7594163,
              40.6648355
            ],
            [
              92.9272878,
              40.5720119
            ],
            [
              92.9057014,
              40.3103516
            ],
            [
              92.7953285,
              40.1524732
            ],
            [
              92.6394079,
              39.5149706
            ],
            [
              92.3386502,
              39.2373639
            ]
          ],
          [
            [
              102.836947,
              36.3458572
            ],
            [
              102.8415743,
              36.3657092
            ],
            [
              102.8430812,
              36.3433242
            ],
            [
              102.836947,
              36.3458572
            ]
          ],
          [
            [
              106.047914,
              35.4489067
            ],
            [
              105.8946848,
              35.4524376
            ],
            [
              106.0546088,
              35.4890835
            ],
            [
              106.047914,
              35.4489067
            ]
          ],
          [
            [
              106.0590505,
              35.4264766
            ],
            [
              106.0698652,
              35.4319667
            ],
            [
              106.0676765,
              35.4201817
            ],
            [
              106.0590505,
              35.4264766
            ]
          ]
        ]
      }
    }
  ]
}
