{
  "bbox": [
    108.932,
    34.25,
    108.949,
    34.267
  ],
  "features": [
    {
      "geometry": {
        "coordinates": [
          [
            108.9431403,
            34.2545095
          ],
          [
            108.9432916,
            34.2545104
          ],
          [
            108.943341,
            34.2545112
          ]
        ],
        "type": "LineString"
      },
      "properties": {
        "amenity": null,
        "highway": "unclassified",
        "historic": null,
        "kind": "lane",
        "name": "书院门",
        "osm_id": 1264366203,
        "osm_type": "way"
      },
      "type": "Feature"
    },
    {
      "geometry": {
        "coordinates": [
          [
            108.9441505,
            34.2538851
          ],
          [
            108.9441373,
            34.2538873
          ],
          [
            108.9441256,
            34.2538943
          ],
          [
            108.9441175,
            34.2539042
          ],
          [
            108.9441152,
            34.2539152
          ],
          [
            108.9441174,
            34.2544635
          ],
          [
            108.9441198,
            34.2544745
          ],
          [
            108.9441282,
            34.2544844
          ],
          [
            108.9441402,
            34.2544913
          ],
          [
            108.9441536,
            34.2544933
          ],
          [
            108.9445427,
            34.2544913
          ],
          [
            108.9451263,
            34.2544841
          ],
          [
            108.9454054,
            34.2544808
          ],
          [
            108.9454042,
            34.2544404
          ],
          [
            108.9453946,
            34.2539717
          ],
          [
            108.9454678,
            34.2539696
          ],
          [
            108.9454692,
            34.254345
          ],
          [
            108.9454683,
            34.2543515
          ],
          [
            108.9454688,
            34.2543743
          ],
          [
            108.9454616,
            34.2543824
          ],
          [
            108.9454623,
            34.2544318
          ],
          [
            108.9454642,
            34.2544796
          ],
          [
            108.9456874,
            34.2544764
          ],
          [
            108.9460857,
            34.2544696
          ],
          [
            108.9461162,
            34.2544664
          ],
          [
            108.9461378,
            34.2544583
          ],
          [
            108.9461505,
            34.2544451
          ],
          [
            108.9461567,
            34.2544274
          ],
          [
            108.946162,
            34.2545629
          ],
          [
            108.9461555,
            34.2545458
          ],
          [
            108.9461454,
            34.254534
          ],
          [
            108.946129,
            34.2545272
          ],
          [
            108.9461063,
            34.2545253
          ],
          [
            108.9457005,
            34.2545338
          ],
          [
            108.9455515,
            34.2545356
          ],
          [
            108.9454024,
            34.254537
          ],
          [
            108.9452534,
            34.2545385
          ],
          [
            108.9451043,
            34.2545407
          ],
          [
            108.9449535,
            34.2545439
          ],
          [
            108.9449362,
            34.2545468
          ],
          [
            108.9449207,
            34.2545559
          ],
          [
            108.9449099,
            34.2545688
          ],
          [
            108.9449066,
            34.2545831
          ],
          [
            108.9449065,
            34.2545882
          ],
          [
            108.9448839,
            34.2545879
          ],
          [
            108.944862,
            34.2545876
          ],
          [
            108.9448612,
            34.2545797
          ],
          [
            108.9448584,
            34.2545719
          ],
          [
            108.9448538,
            34.2545647
          ],
          [
            108.9448477,
            34.2545586
          ],
          [
            108.9448402,
            34.2545536
          ],
          [
            108.9448315,
            34.2545498
          ],
          [
            108.9448221,
            34.2545476
          ],
          [
            108.9448125,
            34.254547
          ],
          [
            108.9447519,
            34.2545482
          ],
          [
            108.9445327,
            34.2545508
          ],
          [
            108.9443134,
            34.2545515
          ],
          [
            108.9440941,
            34.2545508
          ],
          [
            108.9438748,
            34.2545497
          ],
          [
            108.9433398,
            34.2545479
          ],
          [
            108.943341,
            34.2545112
          ],
          [
            108.9433397,
            34.2544853
          ],
          [
            108.9435847,
            34.2544877
          ],
          [
            108.9438037,
            34.2544902
          ],
          [
            108.9440399,
            34.2544929
          ],
          [
            108.9440444,
            34.2544929
          ],
          [
            108.9440515,
            34.2544924
          ],
          [
            108.9440584,
            34.2544907
          ],
          [
            108.9440648,
            34.2544879
          ],
          [
            108.9440702,
            34.2544842
          ],
          [
            108.9440748,
            34.2544797
          ],
          [
            108.9440781,
            34.2544744
          ],
          [
            108.9440802,
            34.2544687
          ],
          [
            108.9440809,
            34.2544629
          ],
          [
            108.9440776,
            34.2536378
          ],
          [
            108.9441141,
            34.2536378
          ],
          [
            108.9441149,
            34.2538234
          ],
          [
            108.9441156,
            34.2538293
          ],
          [
            108.9441178,
            34.253835
          ],
          [
            108.9441213,
            34.2538403
          ],
          [
            108.9441259,
            34.2538448
          ],
          [
            108.9441314,
            34.2538484
          ],
          [
            108.9441379,
            34.2538512
          ],
          [
            108.9441449,
            34.2538528
          ],
          [
            108.9441521,
            34.2538532
          ],
          [
            108.9441505,
            34.2538851
          ]
        ],
        "type": "LineString"
      },
      "properties": {
        "amenity": null,
        "highway": "pedestrian",
        "historic": null,
        "kind": "lane",
        "name": "书院门步行街",
        "osm_id": 1264363657,
        "osm_type": "way"
      },
      "type": "Feature"
    },
    {
      "geometry": {
        "coordinates": [
          [
            108.9433086,
            34.2536839
          ],
          [
            108.9433091,
            34.2536327
          ],
          [
            108.9432479,
            34.2536329
          ],
          [
            108.943225,
            34.2536355
          ],
          [
            108.9432086,
            34.253643
          ],
          [
            108.9431988,
            34.2536556
          ],
          [
            108.9431956,
            34.2536732
          ],
          [
            108.9431956,
            34.2544431
          ],
          [
            108.9431985,
            34.2544613
          ],
          [
            108.9432075,
            34.2544743
          ],
          [
            108.9432225,
            34.254482
          ],
          [
            108.9432434,
            34.2544846
          ],
          [
            108.9433397,
            34.2544853
          ],
          [
            108.9438037,
            34.2544902
          ],
          [
            108.9438041,
            34.2544378
          ],
          [
            108.9434383,
            34.2544374
          ],
          [
            108.9434383,
            34.2543914
          ],
          [
            108.9433231,
            34.2543912
          ],
          [
            108.9433233,
            34.2542547
          ],
          [
            108.9433054,
            34.2542547
          ],
          [
            108.9433055,
            34.254186
          ],
          [
            108.9433254,
            34.254186
          ],
          [
            108.9433255,
            34.2541181
          ],
          [
            108.9433084,
            34.2541181
          ],
          [
            108.9433085,
            34.2540523
          ],
          [
            108.943326,
            34.2540523
          ],
          [
            108.9433263,
            34.2538815
          ],
          [
            108.9433083,
            34.2538815
          ],
          [
            108.9433086,
            34.2536839
          ]
        ],
        "type": "LineString"
      },
      "properties": {
        "amenity": null,
        "highway": "pedestrian",
        "historic": null,
        "kind": "lane",
        "name": "书院门步行街",
        "osm_id": 1264367227,
        "osm_type": "way"
      },
      "type": "Feature"
    },
    {
      "geometry": {
        "coordinates": [
          [
            108.9378497,
            34.2635607
          ],
          [
            108.9369573,
            34.2635897
          ],
          [
            108.9343786,
            34.2636976
          ]
        ],
        "type": "LineString"
      },
      "properties": {
        "amenity": null,
        "highway": "service",
        "historic": null,
        "kind": "lane",
        "name": "化觉巷",
        "osm_id": 61825269,
        "osm_type": "way"
      },
      "type": "Feature"
    },
    {
      "geometry": {
        "coordinates": [
          [
            108.9342738,
            34.2684128
          ],
          [
            108.934291,
            34.2676774
          ],
          [
            108.9342925,
            34.2672506
          ],
          [
            108.9343062,
            34.266415
          ],
          [
            108.9343301,
            34.2660753
          ],
          [
            108.9343526,
            34.2647314
          ],
          [
            108.9343786,
            34.2636976
          ],
          [
            108.9343725,
            34.2632444
          ],
          [
            108.9343849,
            34.2621862
          ]
        ],
        "type": "LineString"
      },
      "properties": {
        "amenity": null,
        "highway": "unclassified",
        "historic": null,
        "kind": "lane",
        "name": "北广济街",
        "osm_id": 40541065,
        "osm_type": "way"
      },
      "type": "Feature"
    },
    {
      "geometry": {
        "coordinates": [
          [
            108.9343849,
            34.2621862
          ],
          [
            108.9343727,
            34.2611474
          ]
        ],
        "type": "LineString"
      },
      "properties": {
        "amenity": null,
        "highway": "residential",
        "historic": null,
        "kind": "lane",
        "name": "北广济街",
        "osm_id": 259323729,
        "osm_type": "way"
      },
      "type": "Feature"
    },
    {
      "geometry": {
        "coordinates": [
          [
            108.9390671,
            34.2652523
          ],
          [
            108.9391717,
            34.2653665
          ],
          [
            108.9392056,
            34.2657974
          ],
          [
            108.9392151,
            34.2659176
          ],
          [
            108.9391166,
            34.2660577
          ],
          [
            108.9389995,
            34.2659137
          ],
          [
            108.9389964,
            34.265806
          ],
          [
            108.938984,
            34.2653698
          ],
          [
            108.9390671,
            34.2652523
          ]
        ],
        "type": "LineString"
      },
      "properties": {
        "amenity": null,
        "highway": "pedestrian",
        "historic": null,
        "kind": "lane",
        "name": "北院门",
        "osm_id": 40541071,
        "osm_type": "way"
      },
      "type": "Feature"
    },
    {
      "geometry": {
        "coordinates": [
          [
            108.9390033,
            34.2647322
          ],
          [
            108.9389792,
            34.2643337
          ],
          [
            108.9389473,
            34.2637249
          ],
          [
            108.9389273,
            34.2633442
          ],
          [
            108.9389056,
            34.2629596
          ],
          [
            108.9389006,
            34.2628709
          ],
          [
            108.9388636,
            34.2622138
          ],
          [
            108.9388595,
            34.2621401
          ],
          [
            108.9388582,
            34.2620696
          ],
          [
            108.9388607,
            34.2620101
          ]
        ],
        "type": "LineString"
      },
      "properties": {
        "amenity": null,
        "highway": "pedestrian",
        "historic": null,
        "kind": "lane",
        "name": "北院门",
        "osm_id": 164554515,
        "osm_type": "way"
      },
      "type": "Feature"
    },
    {
      "geometry": {
        "coordinates": [
          [
            108.9390671,
            34.2652523
          ],
          [
            108.9390599,
            34.2651859
          ],
          [
            108.9390328,
            34.2648996
          ],
          [
            108.9390033,
            34.2647322
          ]
        ],
        "type": "LineString"
      },
      "properties": {
        "amenity": null,
        "highway": "pedestrian",
        "historic": null,
        "kind": "lane",
        "name": "北院门",
        "osm_id": 434568079,
        "osm_type": "way"
      },
      "type": "Feature"
    },
    {
      "geometry": {
        "coordinates": [
          [
            108.9383703,
            34.2660665
          ],
          [
            108.9381981,
            34.2660693
          ],
          [
            108.9372728,
            34.2660721
          ],
          [
            108.9357553,
            34.2660743
          ],
          [
            108.9351639,
            34.2660784
          ],
          [
            108.9343301,
            34.2660753
          ]
        ],
        "type": "LineString"
      },
      "properties": {
        "amenity": null,
        "highway": "unclassified",
        "historic": null,
        "kind": "lane",
        "name": "大皮院",
        "osm_id": 40541070,
        "osm_type": "way"
      },
      "type": "Feature"
    },
    {
      "geometry": {
        "coordinates": [
          [
            108.9388383,
            34.2647319
          ],
          [
            108.938178,
            34.2647249
          ],
          [
            108.9378505,
            34.2647142
          ],
          [
            108.937566,
            34.2647122
          ],
          [
            108.9369506,
            34.2647123
          ],
          [
            108.9365554,
            34.2647112
          ],
          [
            108.936418,
            34.2647114
          ],
          [
            108.9345963,
            34.2647245
          ],
          [
            108.9344116,
            34.2647297
          ]
        ],
        "type": "LineString"
      },
      "properties": {
        "amenity": null,
        "highway": "unclassified",
        "historic": null,
        "kind": "lane",
        "name": "西羊市",
        "osm_id": 40541072,
        "osm_type": "way"
      },
      "type": "Feature"
    },
    {
      "geometry": {
        "coordinates": [
          [
            108.9389707,
            34.2647317
          ],
          [
            108.9388383,
            34.2647319
          ]
        ],
        "type": "LineString"
      },
      "properties": {
        "amenity": null,
        "highway": "pedestrian",
        "historic": null,
        "kind": "lane",
        "name": "西羊市",
        "osm_id": 490880688,
        "osm_type": "way"
      },
      "type": "Feature"
    },
    {
      "geometry": {
        "coordinates": [
          [
            108.9390033,
            34.2647322
          ],
          [
            108.9389707,
            34.2647317
          ]
        ],
        "type": "LineString"
      },
      "properties": {
        "amenity": null,
        "highway": "pedestrian",
        "historic": null,
        "kind": "lane",
        "name": "西羊市",
        "osm_id": 490880690,
        "osm_type": "way"
      },
      "type": "Feature"
    },
    {
      "geometry": {
        "coordinates": [
          [
            108.9344116,
            34.2647297
          ],
          [
            108.9343526,
            34.2647314
          ],
          [
            108.9335793,
            34.2647521
          ]
        ],
        "type": "LineString"
      },
      "properties": {
        "amenity": null,
        "highway": "unclassified",
        "historic": null,
        "kind": "lane",
        "name": "西羊市",
        "osm_id": 1395170517,
        "osm_type": "way"
      },
      "type": "Feature"
    },
    {
      "geometry": {
        "coordinates": [
          [
            108.9584619,
            34.2610911
          ],
          [
            108.9583264,
            34.2610932
          ],
          [
            108.9564239,
            34.2611222
          ],
          [
            108.9558395,
            34.2611411
          ],
          [
            108.9557131,
            34.2611456
          ],
          [
            108.952455,
            34.2612044
          ],
          [
            108.9515348,
            34.2612103
          ],
          [
            108.9513323,
            34.261195
          ],
          [
            108.9512552,
            34.2611947
          ],
          [
            108.9495822,
            34.2611815
          ],
          [
            108.9494895,
            34.2611808
          ],
          [
            108.949359,
            34.2611737
          ],
          [
            108.9492585,
            34.2611743
          ],
          [
            108.9472924,
            34.2611869
          ],
          [
            108.9465314,
            34.261179
          ],
          [
            108.9454799,
            34.2611579
          ],
          [
            108.944016,
            34.2611058
          ],
          [
            108.9433436,
            34.2610953
          ],
          [
            108.943259,
            34.261101
          ],
          [
            108.9431757,
            34.2611139
          ],
          [
            108.9430944,
            34.261134
          ],
          [
            108.9430061,
            34.2611651
          ],
          [
            108.9429229,
            34.2612046
          ],
          [
            108.942846,
            34.2612519
          ]
        ],
        "type": "LineString"
      },
      "properties": {
        "amenity": null,
        "highway": "primary",
        "historic": null,
        "kind": "major-street",
        "name": "东大街",
        "osm_id": 28484384,
        "osm_type": "way"
      },
      "type": "Feature"
    },
    {
      "geometry": {
        "coordinates": [
          [
            108.9428682,
            34.260787
          ],
          [
            108.9429231,
            34.2608263
          ],
          [
            108.9429824,
            34.260861
          ],
          [
            108.9430455,
            34.2608908
          ],
          [
            108.9431119,
            34.2609153
          ],
          [
            108.9431891,
            34.2609361
          ],
          [
            108.9432686,
            34.2609498
          ],
          [
            108.9433494,
            34.2609562
          ],
          [
            108.9437678,
            34.2609643
          ],
          [
            108.944317,
            34.2609789
          ],
          [
            108.9453834,
            34.2610151
          ],
          [
            108.9455637,
            34.2610212
          ],
          [
            108.946072,
            34.2610375
          ],
          [
            108.9464717,
            34.2610369
          ],
          [
            108.9473061,
            34.2610508
          ],
          [
            108.9492574,
            34.2610596
          ],
          [
            108.9493578,
            34.2610601
          ],
          [
            108.9494881,
            34.2610609
          ],
          [
            108.9495767,
            34.2610625
          ],
          [
            108.9512136,
            34.2610927
          ],
          [
            108.9513945,
            34.2611215
          ],
          [
            108.9524482,
            34.2611443
          ],
          [
            108.9549191,
            34.2610994
          ],
          [
            108.9558383,
            34.2610465
          ],
          [
            108.9562789,
            34.2610174
          ],
          [
            108.9566991,
            34.2609995
          ],
          [
            108.9583329,
            34.260969
          ],
          [
            108.958461,
            34.2609681
          ]
        ],
        "type": "LineString"
      },
      "properties": {
        "amenity": null,
        "highway": "primary",
        "historic": null,
        "kind": "major-street",
        "name": "东大街",
        "osm_id": 969449155,
        "osm_type": "way"
      },
      "type": "Feature"
    },
    {
      "geometry": {
        "coordinates": [
          [
            108.9426465,
            34.2614208
          ],
          [
            108.9425916,
            34.2614671
          ],
          [
            108.9425433,
            34.2615181
          ],
          [
            108.9425025,
            34.2615734
          ],
          [
            108.9424697,
            34.2616323
          ],
          [
            108.9424478,
            34.2616868
          ],
          [
            108.9424328,
            34.2617429
          ],
          [
            108.9424249,
            34.2618
          ],
          [
            108.9424241,
            34.2618575
          ]
        ],
        "type": "LineString"
      },
      "properties": {
        "amenity": null,
        "highway": "primary",
        "historic": null,
        "kind": "major-street",
        "name": "北大街",
        "osm_id": 28358444,
        "osm_type": "way"
      },
      "type": "Feature"
    },
    {
      "geometry": {
        "coordinates": [
          [
            108.9424955,
            34.266103
          ],
          [
            108.9425014,
            34.2662073
          ],
          [
            108.9425063,
            34.2662939
          ],
          [
            108.9425262,
            34.2683605
          ],
          [
            108.9425257,
            34.2683967
          ],
          [
            108.9425505,
            34.2697191
          ],
          [
            108.9425507,
            34.270049
          ],
          [
            108.9425614,
            34.2705969
          ],
          [
            108.9425793,
            34.2712941
          ],
          [
            108.9425816,
            34.2714244
          ],
          [
            108.9425853,
            34.2715821
          ]
        ],
        "type": "LineString"
      },
      "properties": {
        "amenity": null,
        "highway": "primary",
        "historic": null,
        "kind": "major-street",
        "name": "北大街",
        "osm_id": 254489533,
        "osm_type": "way"
      },
      "type": "Feature"
    },
    {
      "geometry": {
        "coordinates": [
          [
            108.9422764,
            34.2618586
          ],
          [
            108.9422704,
            34.2617944
          ],
          [
            108.9422557,
            34.2617311
          ],
          [
            108.9422326,
            34.2616695
          ],
          [
            108.9422012,
            34.2616105
          ],
          [
            108.9421581,
            34.2615498
          ],
          [
            108.9421062,
            34.2614938
          ],
          [
            108.9420465,
            34.2614435
          ],
          [
            108.9419798,
            34.2613996
          ]
        ],
        "type": "LineString"
      },
      "properties": {
        "amenity": null,
        "highway": "primary",
        "historic": null,
        "kind": "major-street",
        "name": "北大街",
        "osm_id": 254489534,
        "osm_type": "way"
      },
      "type": "Feature"
    },
    {
      "geometry": {
        "coordinates": [
          [
            108.9424201,
            34.2714248
          ],
          [
            108.9424207,
            34.2712957
          ],
          [
            108.9424196,
            34.2708421
          ],
          [
            108.9424138,
            34.2706397
          ],
          [
            108.9423993,
            34.2699016
          ],
          [
            108.942391,
            34.2685606
          ],
          [
            108.9423902,
            34.2683663
          ],
          [
            108.942341,
            34.2662978
          ],
          [
            108.9423407,
            34.2662078
          ],
          [
            108.9423405,
            34.2661091
          ],
          [
            108.9423405,
            34.2660105
          ],
          [
            108.9423405,
            34.2659078
          ],
          [
            108.9423399,
            34.265843
          ],
          [
            108.9423214,
            34.2650017
          ],
          [
            108.9422817,
            34.2626417
          ],
          [
            108.9422825,
            34.2625949
          ],
          [
            108.9422764,
            34.2618586
          ]
        ],
        "type": "LineString"
      },
      "properties": {
        "amenity": null,
        "highway": "primary",
        "historic": null,
        "kind": "major-street",
        "name": "北大街",
        "osm_id": 337335331,
        "osm_type": "way"
      },
      "type": "Feature"
    },
    {
      "geometry": {
        "coordinates": [
          [
            108.9424241,
            34.2618575
          ],
          [
            108.9424511,
            34.2634035
          ],
          [
            108.9424806,
            34.2658413
          ],
          [
            108.942484,
            34.2659015
          ],
          [
            108.9424897,
            34.2660009
          ],
          [
            108.9424955,
            34.266103
          ]
        ],
        "type": "LineString"
      },
      "properties": {
        "amenity": null,
        "highway": "primary",
        "historic": null,
        "kind": "major-street",
        "name": "北大街",
        "osm_id": 463727055,
        "osm_type": "way"
      },
      "type": "Feature"
    },
    {
      "geometry": {
        "coordinates": [
          [
            108.942575,
            34.2544478
          ],
          [
            108.9424902,
            34.2545399
          ],
          [
            108.9424154,
            34.2546449
          ],
          [
            108.9423919,
            34.2546909
          ],
          [
            108.942375,
            34.2547436
          ],
          [
            108.9423744,
            34.2576938
          ],
          [
            108.9423764,
            34.258928
          ],
          [
            108.9423761,
            34.2591738
          ],
          [
            108.9423634,
            34.2596225
          ],
          [
            108.9423735,
            34.2601886
          ],
          [
            108.9423828,
            34.2602494
          ],
          [
            108.9424006,
            34.2603089
          ],
          [
            108.9424239,
            34.260361
          ],
          [
            108.9424537,
            34.2604107
          ],
          [
            108.9424898,
            34.2604576
          ],
          [
            108.9425316,
            34.260501
          ]
        ],
        "type": "LineString"
      },
      "properties": {
        "amenity": null,
        "highway": "primary",
        "historic": null,
        "kind": "major-street",
        "name": "南大街",
        "osm_id": 28258941,
        "osm_type": "way"
      },
      "type": "Feature"
    },
    {
      "geometry": {
        "coordinates": [
          [
            108.9419938,
            34.2605968
          ],
          [
            108.9420517,
            34.2605582
          ],
          [
            108.9421027,
            34.2605133
          ],
          [
            108.9421411,
            34.2604713
          ],
          [
            108.9421746,
            34.2604266
          ],
          [
            108.9422027,
            34.2603794
          ],
          [
            108.9422298,
            34.2603178
          ],
          [
            108.9422479,
            34.260254
          ],
          [
            108.9422567,
            34.2601889
          ],
          [
            108.9422587,
            34.2596205
          ],
          [
            108.9422795,
            34.2589462
          ],
          [
            108.9422827,
            34.2587739
          ],
          [
            108.9422777,
            34.2576836
          ],
          [
            108.9422706,
            34.2570604
          ],
          [
            108.9422727,
            34.2558527
          ],
          [
            108.9422779,
            34.2547923
          ],
          [
            108.9422781,
            34.254695
          ],
          [
            108.942254,
            34.2546367
          ],
          [
            108.9421216,
            34.2545252
          ],
          [
            108.9420766,
            34.2544833
          ],
          [
            108.9420144,
            34.2544343
          ],
          [
            108.9419697,
            34.2543983
          ],
          [
            108.941894,
            34.2543375
          ]
        ],
        "type": "LineString"
      },
      "properties": {
        "amenity": null,
        "highway": "primary",
        "historic": null,
        "kind": "major-street",
        "name": "南大街",
        "osm_id": 28258942,
        "osm_type": "way"
      },
      "type": "Feature"
    },
    {
      "geometry": {
        "coordinates": [
          [
            108.9427571,
            34.2543161
          ],
          [
            108.942575,
            34.2544478
          ]
        ],
        "type": "LineString"
      },
      "properties": {
        "amenity": null,
        "highway": "primary",
        "historic": null,
        "kind": "major-street",
        "name": "南大街",
        "osm_id": 1539010425,
        "osm_type": "way"
      },
      "type": "Feature"
    },
    {
      "geometry": {
        "coordinates": [
          [
            108.9425316,
            34.260501
          ],
          [
            108.9425932,
            34.2605511
          ],
          [
            108.9426634,
            34.2605928
          ]
        ],
        "type": "LineString"
      },
      "properties": {
        "amenity": null,
        "highway": "primary",
        "historic": null,
        "kind": "major-street",
        "name": "南大街",
        "osm_id": 1539012613,
        "osm_type": "way"
      },
      "type": "Feature"
    },
    {
      "geometry": {
        "coordinates": [
          [
            108.9417929,
            34.2612121
          ],
          [
            108.9417477,
            34.2611714
          ],
          [
            108.9416987,
            34.261134
          ],
          [
            108.9416462,
            34.2610999
          ],
          [
            108.9415795,
            34.2610643
          ],
          [
            108.9415089,
            34.2610341
          ],
          [
            108.941435,
            34.2610098
          ],
          [
            108.9413587,
            34.2609916
          ],
          [
            108.9412806,
            34.2609796
          ],
          [
            108.9399929,
            34.2609246
          ],
          [
            108.9388036,
            34.260915
          ],
          [
            108.9374893,
            34.2608953
          ],
          [
            108.9370682,
            34.2609169
          ],
          [
            108.9362924,
            34.2609597
          ],
          [
            108.9352467,
            34.2610131
          ],
          [
            108.9345553,
            34.2610391
          ],
          [
            108.9344682,
            34.2610573
          ],
          [
            108.9343628,
            34.2610794
          ],
          [
            108.9316597,
            34.2610948
          ],
          [
            108.9280437,
            34.2611049
          ],
          [
            108.927879,
            34.2611339
          ],
          [
            108.9274151,
            34.2611286
          ],
          [
            108.9271809,
            34.2611301
          ],
          [
            108.9253324,
            34.2611248
          ],
          [
            108.9244239,
            34.2611093
          ],
          [
            108.9239357,
            34.261078
          ],
          [
            108.9236105,
            34.2610572
          ],
          [
            108.922287,
            34.261032
          ],
          [
            108.9221112,
            34.2610682
          ],
          [
            108.9218643,
            34.2611301
          ],
          [
            108.9217344,
            34.2611804
          ],
          [
            108.9216218,
            34.2612417
          ],
          [
            108.9213442,
            34.2614786
          ]
        ],
        "type": "LineString"
      },
      "properties": {
        "amenity": null,
        "highway": "primary",
        "historic": null,
        "kind": "major-street",
        "name": "西大街",
        "osm_id": 28296475,
        "osm_type": "way"
      },
      "type": "Feature"
    },
    {
      "geometry": {
        "coordinates": [
          [
            108.9408179,
            34.2608291
          ],
          [
            108.9412867,
            34.2608543
          ],
          [
            108.9413645,
            34.2608596
          ],
          [
            108.9414426,
            34.2608581
          ],
          [
            108.94152,
            34.2608498
          ],
          [
            108.941596,
            34.2608349
          ],
          [
            108.9416697,
            34.2608135
          ],
          [
            108.9417514,
            34.2607807
          ],
          [
            108.9418277,
            34.2607399
          ]
        ],
        "type": "LineString"
      },
      "properties": {
        "amenity": null,
        "highway": "primary",
        "historic": null,
        "kind": "major-street",
        "name": "西大街",
        "osm_id": 257224672,
        "osm_type": "way"
      },
      "type": "Feature"
    },
    {
      "geometry": {
        "coordinates": [
          [
            108.9221151,
            34.2609704
          ],
          [
            108.9237372,
            34.2609845
          ],
          [
            108.9239842,
            34.2609384
          ],
          [
            108.9274028,
            34.2609697
          ],
          [
            108.9278217,
            34.2609725
          ],
          [
            108.9279084,
            34.2609731
          ],
          [
            108.9282339,
            34.2610384
          ],
          [
            108.9289625,
            34.2610321
          ],
          [
            108.9313081,
            34.2610242
          ],
          [
            108.9343627,
            34.2610069
          ],
          [
            108.9344653,
            34.2609912
          ],
          [
            108.9345553,
            34.2609611
          ],
          [
            108.9374757,
            34.2608298
          ],
          [
            108.938468,
            34.2608392
          ],
          [
            108.938851,
            34.2608452
          ],
          [
            108.9401775,
            34.2608171
          ],
          [
            108.9408179,
            34.2608291
          ]
        ],
        "type": "LineString"
      },
      "properties": {
        "amenity": null,
        "highway": "primary",
        "historic": null,
        "kind": "major-street",
        "name": "西大街",
        "osm_id": 257224673,
        "osm_type": "way"
      },
      "type": "Feature"
    },
    {
      "geometry": {
        "coordinates": [
          [
            [
              108.9420873,
              34.2528397
            ],
            [
              108.9420873,
              34.2527604
            ],
            [
              108.942558,
              34.2527603
            ],
            [
              108.942558,
              34.2528396
            ],
            [
              108.9420873,
              34.2528397
            ]
          ]
        ],
        "type": "Polygon"
      },
      "properties": {
        "amenity": null,
        "highway": null,
        "historic": null,
        "kind": "site",
        "name": "永宁门",
        "osm_id": 497244585,
        "osm_type": "way"
      },
      "type": "Feature"
    },
    {
      "geometry": {
        "coordinates": [
          [
            [
              108.9352136,
              34.2636387
            ],
            [
              108.9352284,
              34.2632298
            ],
            [
              108.9378351,
              34.2631096
            ],
            [
              108.9378314,
              34.2635435
            ],
            [
              108.937763,
              34.2635456
            ],
            [
              108.9352136,
              34.2636387
            ]
          ]
        ],
        "type": "Polygon"
      },
      "properties": {
        "amenity": "place_of_worship",
        "highway": null,
        "historic": null,
        "kind": "site",
        "name": "清真大寺",
        "osm_id": 445010012,
        "osm_type": "way"
      },
      "type": "Feature"
    },
    {
      "geometry": {
        "coordinates": [
          [
            [
              108.9425522,
              34.261192
            ],
            [
              108.9425576,
              34.2608362
            ],
            [
              108.9421316,
              34.2608318
            ],
            [
              108.9421262,
              34.2611876
            ],
            [
              108.9425522,
              34.261192
            ]
          ]
        ],
        "type": "Polygon"
      },
      "properties": {
        "amenity": null,
        "highway": null,
        "historic": "monument",
        "kind": "site",
        "name": "钟楼",
        "osm_id": 254488435,
        "osm_type": "way"
      },
      "type": "Feature"
    },
    {
      "geometry": {
        "coordinates": [
          [
            [
              108.9390747,
              34.2619106
            ],
            [
              108.9390747,
              34.2618741
            ],
            [
              108.939108,
              34.2618742
            ],
            [
              108.9391085,
              34.2616573
            ],
            [
              108.9390763,
              34.2616572
            ],
            [
              108.9390764,
              34.2616105
            ],
            [
              108.9385759,
              34.2616097
            ],
            [
              108.9385752,
              34.2619098
            ],
            [
              108.9390747,
              34.2619106
            ]
          ]
        ],
        "type": "Polygon"
      },
      "properties": {
        "amenity": null,
        "highway": null,
        "historic": "monument",
        "kind": "site",
        "name": "鼓楼",
        "osm_id": 254488437,
        "osm_type": "way"
      },
      "type": "Feature"
    }
  ],
  "metadata": {
    "normalization": "Selected named street and site ways only; no private or business data retained.",
    "snapshot_date": "2026-08-15",
    "source_license": "OpenStreetMap contributors, ODbL 1.0",
    "source_url": "https://api.openstreetmap.org/api/0.6/map?bbox=108.932,34.250,108.949,34.267"
  },
  "type": "FeatureCollection"
}
